start=new Date('2021-11-10T00:00:00.000Z').valueOf();
sats=[{"OBJECT_NAME":"STARLINK-1556","TIME_SYSTEM":"UTC","PERIAPSIS":"546.291","MEAN_ELEMENT_THEORY":"SGP4","RCS_SIZE":"LARGE","GP_ID":"189360118","APOAPSIS":"548.140","MEAN_MOTION_DDOT":"0.0000000000000","ARG_OF_PERICENTER":"78.7650","DECAY_DATE":null,"MEAN_MOTION":"15.06399425","MEAN_ANOMALY":"281.3489","FILE":"3210180","REF_FRAME":"TEME","TLE_LINE2":"2 46033  53.0559  24.6014 0001335  78.7650 281.3489 15.06399425 70553","OBJECT_TYPE":"PAYLOAD","PERIOD":"95.592","SEMIMAJOR_AXIS":"6925.350","NORAD_CAT_ID":"46033","ECCENTRICITY":"0.00013350","SITE":"AFETR","MEAN_MOTION_DOT":"0.00000932","REV_AT_EPOCH":"7055","INCLINATION":"53.0559","COUNTRY_CODE":"US","OBJECT_ID":"2020-055G","CLASSIFICATION_TYPE":"U","RA_OF_ASC_NODE":"24.6014","ELEMENT_SET_NO":"999","EPHEMERIS_TYPE":"0","BSTAR":"0.00008143300000","LAUNCH_DATE":"2020-08-07","TLE_LINE1":"1 46033U 20055G   21313.55678735  .00000932  00000-0  81433-4 0  9991","CENTER_NAME":"EARTH","EPOCH":"2021-11-09T13:21:46.427040"},{"CENTER_NAME":"EARTH","EPOCH":"2021-11-09T16:38:09.612384","LAUNCH_DATE":"2020-08-07","TLE_LINE1":"1 46034U 20055H   21313.69316681  .00010099  00000-0  69551-3 0  9997","BSTAR":"0.00069551000000","EPHEMERIS_TYPE":"0","ELEMENT_SET_NO":"999","CLASSIFICATION_TYPE":"U","RA_OF_ASC_NODE":"24.0001","COUNTRY_CODE":"US","OBJECT_ID":"2020-055H","REV_AT_EPOCH":"7057","INCLINATION":"53.0553","MEAN_MOTION_DOT":"0.00010099","SITE":"AFETR","NORAD_CAT_ID":"46034","ECCENTRICITY":"0.00010420","SEMIMAJOR_AXIS":"6925.289","OBJECT_TYPE":"PAYLOAD","PERIOD":"95.591","TLE_LINE2":"2 46034  53.0553  24.0001 0001042  77.6042 282.5064 15.06419554 70576","FILE":"3210180","REF_FRAME":"TEME","MEAN_ANOMALY":"282.5064","MEAN_MOTION":"15.06419554","DECAY_DATE":null,"ARG_OF_PERICENTER":"77.6042","APOAPSIS":"547.875","MEAN_MOTION_DDOT":"0.0000000000000","GP_ID":"189360369","PERIAPSIS":"546.432","MEAN_ELEMENT_THEORY":"SGP4","RCS_SIZE":"LARGE","TIME_SYSTEM":"UTC","OBJECT_NAME":"STARLINK-1557"},{"SEMIMAJOR_AXIS":"6925.308","NORAD_CAT_ID":"46035","ECCENTRICITY":"0.00015370","MEAN_MOTION_DOT":"0.00003585","REV_AT_EPOCH":"7060","INCLINATION":"53.0543","SITE":"AFETR","ELEMENT_SET_NO":"999","COUNTRY_CODE":"US","OBJECT_ID":"2020-055J","CLASSIFICATION_TYPE":"U","RA_OF_ASC_NODE":"23.9571","TLE_LINE1":"1 46035U 20055J   21313.70054775  .00003585  00000-0  25937-3 0  9995","LAUNCH_DATE":"2020-08-07","CENTER_NAME":"EARTH","EPOCH":"2021-11-09T16:48:47.325600","EPHEMERIS_TYPE":"0","BSTAR":"0.00025937000000","PERIAPSIS":"546.108","MEAN_ELEMENT_THEORY":"SGP4","RCS_SIZE":"LARGE","OBJECT_NAME":"STARLINK-1558","TIME_SYSTEM":"UTC","GP_ID":"189359117","ARG_OF_PERICENTER":"57.2340","DECAY_DATE":null,"APOAPSIS":"548.237","MEAN_MOTION_DDOT":"0.0000000000000","TLE_LINE2":"2 46035  53.0543  23.9571 0001537  57.2340 302.8797 15.06413325 70603","OBJECT_TYPE":"PAYLOAD","PERIOD":"95.591","MEAN_ANOMALY":"302.8797","MEAN_MOTION":"15.06413325","FILE":"3210180","REF_FRAME":"TEME"},{"MEAN_ELEMENT_THEORY":"SGP4","PERIAPSIS":"546.076","RCS_SIZE":"LARGE","OBJECT_NAME":"STARLINK-1560","TIME_SYSTEM":"UTC","GP_ID":"189359367","ARG_OF_PERICENTER":"84.2178","DECAY_DATE":null,"MEAN_MOTION_DDOT":"0.0000000000000","APOAPSIS":"548.268","TLE_LINE2":"2 46036  53.0538  24.6173 0001583  84.2178 275.8992 15.06413614 70588","OBJECT_TYPE":"PAYLOAD","PERIOD":"95.591","MEAN_ANOMALY":"275.8992","MEAN_MOTION":"15.06413614","FILE":"3210180","REF_FRAME":"TEME","SEMIMAJOR_AXIS":"6925.307","NORAD_CAT_ID":"46036","ECCENTRICITY":"0.00015830","MEAN_MOTION_DOT":"0.00006236","REV_AT_EPOCH":"7058","INCLINATION":"53.0538","SITE":"AFETR","ELEMENT_SET_NO":"999","COUNTRY_CODE":"US","OBJECT_ID":"2020-055K","CLASSIFICATION_TYPE":"U","RA_OF_ASC_NODE":"24.6173","LAUNCH_DATE":"2020-08-07","TLE_LINE1":"1 46036U 20055K   21313.55311871  .00006236  00000-0  43703-3 0  9999","CENTER_NAME":"EARTH","EPOCH":"2021-11-09T13:16:29.456544","EPHEMERIS_TYPE":"0","BSTAR":"0.00043703000000"},{"FILE":"3210161","REF_FRAME":"TEME","MEAN_ANOMALY":"285.5567","MEAN_MOTION":"15.06411913","OBJECT_TYPE":"PAYLOAD","PERIOD":"95.591","TLE_LINE2":"2 46037  53.0553  24.6427 0001203  74.5555 285.5567 15.06411913 70573","APOAPSIS":"548.010","MEAN_MOTION_DDOT":"0.0000000000000","DECAY_DATE":null,"ARG_OF_PERICENTER":"74.5555","GP_ID":"189336370","TIME_SYSTEM":"UTC","OBJECT_NAME":"STARLINK-1565","PERIAPSIS":"546.344","MEAN_ELEMENT_THEORY":"SGP4","RCS_SIZE":"LARGE","BSTAR":"0.00045705000000","EPHEMERIS_TYPE":"0","CENTER_NAME":"EARTH","EPOCH":"2021-11-09T13:11:10.834080","TLE_LINE1":"1 46037U 20055L   21313.54943095  .00006535  00000-0  45705-3 0  9994","LAUNCH_DATE":"2020-08-07","CLASSIFICATION_TYPE":"U","RA_OF_ASC_NODE":"24.6427","COUNTRY_CODE":"US","OBJECT_ID":"2020-055L","ELEMENT_SET_NO":"999","SITE":"AFETR","INCLINATION":"53.0553","REV_AT_EPOCH":"7057","MEAN_MOTION_DOT":"0.00006535","NORAD_CAT_ID":"46037","ECCENTRICITY":"0.00012030","SEMIMAJOR_AXIS":"6925.312"},{"REF_FRAME":"TEME","FILE":"3210161","MEAN_ANOMALY":"293.6185","MEAN_MOTION":"15.06427098","PERIOD":"95.590","OBJECT_TYPE":"PAYLOAD","TLE_LINE2":"2 46038  53.0552  24.8761 0001374  66.4948 293.6185 15.06427098 70567","MEAN_MOTION_DDOT":"0.0000000000000","APOAPSIS":"548.082","DECAY_DATE":null,"ARG_OF_PERICENTER":"66.4948","GP_ID":"189335617","TIME_SYSTEM":"UTC","OBJECT_NAME":"STARLINK-1567","RCS_SIZE":"LARGE","PERIAPSIS":"546.179","MEAN_ELEMENT_THEORY":"SGP4","BSTAR":"0.00079744000000","EPHEMERIS_TYPE":"0","EPOCH":"2021-11-09T11:56:51.378432","CENTER_NAME":"EARTH","LAUNCH_DATE":"2020-08-07","TLE_LINE1":"1 46038U 20055M   21313.49781688  .00011625  00000-0  79744-3 0  9993","RA_OF_ASC_NODE":"24.8761","CLASSIFICATION_TYPE":"U","OBJECT_ID":"2020-055M","COUNTRY_CODE":"US","ELEMENT_SET_NO":"999","SITE":"AFETR","REV_AT_EPOCH":"7056","INCLINATION":"53.0552","MEAN_MOTION_DOT":"0.00011625","NORAD_CAT_ID":"46038","ECCENTRICITY":"0.00013740","SEMIMAJOR_AXIS":"6925.266"},{"RCS_SIZE":"LARGE","PERIAPSIS":"546.382","MEAN_ELEMENT_THEORY":"SGP4","TIME_SYSTEM":"UTC","OBJECT_NAME":"STARLINK-1569","GP_ID":"189335368","DECAY_DATE":null,"ARG_OF_PERICENTER":"76.7257","MEAN_MOTION_DDOT":"0.0000000000000","APOAPSIS":"548.025","PERIOD":"95.592","OBJECT_TYPE":"PAYLOAD","TLE_LINE2":"2 46039  53.0550  24.8430 0001186  76.7257 283.3864 15.06403309 70566","REF_FRAME":"TEME","FILE":"3210161","MEAN_ANOMALY":"283.3864","MEAN_MOTION":"15.06403309","NORAD_CAT_ID":"46039","ECCENTRICITY":"0.00011860","SEMIMAJOR_AXIS":"6925.338","REV_AT_EPOCH":"7056","INCLINATION":"53.0550","MEAN_MOTION_DOT":"0.00006021","SITE":"AFETR","ELEMENT_SET_NO":"999","RA_OF_ASC_NODE":"24.8430","CLASSIFICATION_TYPE":"U","OBJECT_ID":"2020-055N","COUNTRY_CODE":"US","EPOCH":"2021-11-09T12:07:30.174240","CENTER_NAME":"EARTH","LAUNCH_DATE":"2020-08-07","TLE_LINE1":"1 46039U 20055N   21313.50521035  .00006021  00000-0  42270-3 0  9992","BSTAR":"0.00042270000000","EPHEMERIS_TYPE":"0"},{"EPOCH":"2021-11-09T14:25:28.178112","CENTER_NAME":"EARTH","LAUNCH_DATE":"2020-08-07","TLE_LINE1":"1 46040U 20055P   21313.60102058  .00008746  00000-0  60482-3 0  9996","BSTAR":"0.00060482000000","EPHEMERIS_TYPE":"0","ELEMENT_SET_NO":"999","RA_OF_ASC_NODE":"24.4133","CLASSIFICATION_TYPE":"U","OBJECT_ID":"2020-055P","COUNTRY_CODE":"US","INCLINATION":"53.0547","REV_AT_EPOCH":"7054","MEAN_MOTION_DOT":"0.00008746","SITE":"AFETR","NORAD_CAT_ID":"46040","ECCENTRICITY":"0.00011930","SEMIMAJOR_AXIS":"6925.255","PERIOD":"95.590","OBJECT_TYPE":"PAYLOAD","TLE_LINE2":"2 46040  53.0547  24.4133 0001193  79.8081 280.3043 15.06430455 70543","REF_FRAME":"TEME","FILE":"3210180","MEAN_ANOMALY":"280.3043","MEAN_MOTION":"15.06430455","DECAY_DATE":null,"ARG_OF_PERICENTER":"79.8081","MEAN_MOTION_DDOT":"0.0000000000000","APOAPSIS":"547.946","GP_ID":"189358867","RCS_SIZE":"LARGE","PERIAPSIS":"546.294","MEAN_ELEMENT_THEORY":"SGP4","TIME_SYSTEM":"UTC","OBJECT_NAME":"STARLINK-1576"},{"EPOCH":"2021-11-09T14:29:25.687392","CENTER_NAME":"EARTH","TLE_LINE1":"1 46041U 20055Q   21313.60376953  .00006129  00000-0  42982-3 0  9992","LAUNCH_DATE":"2020-08-07","BSTAR":"0.00042982000000","EPHEMERIS_TYPE":"0","ELEMENT_SET_NO":"999","RA_OF_ASC_NODE":"24.4002","CLASSIFICATION_TYPE":"U","OBJECT_ID":"2020-055Q","COUNTRY_CODE":"US","INCLINATION":"53.0553","REV_AT_EPOCH":"7055","MEAN_MOTION_DOT":"0.00006129","SITE":"AFETR","NORAD_CAT_ID":"46041","ECCENTRICITY":"0.00014250","SEMIMAJOR_AXIS":"6925.297","PERIOD":"95.591","OBJECT_TYPE":"PAYLOAD","TLE_LINE2":"2 46041  53.0553  24.4002 0001425  83.4064 276.7088 15.06416933 70550","REF_FRAME":"TEME","FILE":"3210180","MEAN_MOTION":"15.06416933","MEAN_ANOMALY":"276.7088","DECAY_DATE":null,"ARG_OF_PERICENTER":"83.4064","APOAPSIS":"548.149","MEAN_MOTION_DDOT":"0.0000000000000","GP_ID":"189360119","RCS_SIZE":"LARGE","PERIAPSIS":"546.175","MEAN_ELEMENT_THEORY":"SGP4","TIME_SYSTEM":"UTC","OBJECT_NAME":"STARLINK-1580"},{"APOAPSIS":"547.996","MEAN_MOTION_DDOT":"0.0000000000000","DECAY_DATE":null,"ARG_OF_PERICENTER":"73.8834","REF_FRAME":"TEME","FILE":"3210180","MEAN_ANOMALY":"286.2289","MEAN_MOTION":"15.06420061","PERIOD":"95.591","OBJECT_TYPE":"PAYLOAD","TLE_LINE2":"2 46042  53.0551  24.4761 0001219  73.8834 286.2289 15.06420061 70545","TIME_SYSTEM":"UTC","OBJECT_NAME":"STARLINK-1581","RCS_SIZE":"LARGE","MEAN_ELEMENT_THEORY":"SGP4","PERIAPSIS":"546.308","GP_ID":"189360370","RA_OF_ASC_NODE":"24.4761","CLASSIFICATION_TYPE":"U","OBJECT_ID":"2020-055R","COUNTRY_CODE":"US","ELEMENT_SET_NO":"999","EPHEMERIS_TYPE":"0","BSTAR":"0.00040059000000","EPOCH":"2021-11-09T14:04:14.952288","CENTER_NAME":"EARTH","LAUNCH_DATE":"2020-08-07","TLE_LINE1":"1 46042U 20055R   21313.58628417  .00005694  00000-0  40059-3 0  9994","NORAD_CAT_ID":"46042","ECCENTRICITY":"0.00012190","SEMIMAJOR_AXIS":"6925.287","SITE":"AFETR","INCLINATION":"53.0551","REV_AT_EPOCH":"7054","MEAN_MOTION_DOT":"0.00005694"}];
